NORAD_CAT_ID,OBJECT_NAME,OBJECT_TYPE,EPOCH,MEAN_MOTION,ECCENTRICITY,INCLINATION,RA_OF_ASC_NODE,ARG_OF_PERICENTER,MEAN_ANOMALY,BSTAR,MEAN_MOTION_DOT,MEAN_MOTION_DDOT,TLE_LINE0,TLE_LINE1,TLE_LINE2,SEMIMAJOR_AXIS,PERIOD,APOGEE,PERIGEE,DECAYED
55428.0,STARLINK-5064,PAYLOAD,2023-06-24 01:55:55,14.98342585,0.0003063,69.9999,59.8007,268.6353,91.4455,0.00013613,1.532e-05,0.0,0 STARLINK-5064,1 55428U 23014AP  23175.08049795  .00001532  00000-0  13613-3 0  9992,2 55428  69.9999  59.8007 0003063 268.6353  91.4455 14.98342585 22383,6950.154,96.106,574.148,569.89,0.0
55428.0,STARLINK-5064,PAYLOAD,2023-06-24 16:21:08,14.98322721,0.0002556,69.9997,58.2854,269.7355,90.3511,6.6724e-05,7.03e-06,0.0,0 STARLINK-5064,1 55428U 23014AP  23175.68135102  .00000703  00000-0  66724-4 0  9997,2 55428  69.9997  58.2854 0002556 269.7355  90.3511 14.98322721 22475,6950.215,96.107,573.857,570.304,0.0
55428.0,STARLINK-5064,PAYLOAD,2023-06-25 01:57:57,14.98317507,0.0003103,69.9999,57.2758,267.8193,92.261,-5.9037e-05,-7.97e-06,0.0,0 STARLINK-5064,1 55428U 23014AP  23176.08191972 -.00000797  00000-0 -59037-4 0  9993,2 55428  69.9999  57.2758 0003103 267.8193  92.2610 14.98317507 22531,6950.232,96.108,574.253,569.94,0.0
55428.0,STARLINK-5064,PAYLOAD,2023-06-25 16:23:09,14.98331667,0.0003115,69.9997,55.7608,268.1692,91.911,-7.7555e-05,-1.018e-05,0.0,0 STARLINK-5064,1 55428U 23014AP  23176.68275303 -.00001018  00000-0 -77555-4 0  9992,2 55428  69.9997  55.7608 0003115 268.1692  91.9110 14.98331667 22621,6950.188,96.107,574.218,569.888,0.0
55428.0,STARLINK-5064,PAYLOAD,2023-06-26 01:59:57,14.98337793,0.000308,69.9998,54.7507,267.9678,92.1129,-3.9939e-05,-5.7e-06,0.0,0 STARLINK-5064,1 55428U 23014AP  23177.08330739 -.00000570  00000-0 -39939-4 0  9998,2 55428  69.9998  54.7507 0003080 267.9678  92.1129 14.98337793 22686,6950.169,96.106,574.174,569.893,0.0
55428.0,STARLINK-5064,PAYLOAD,2023-06-26 16:25:11,14.98317442,0.0002974,70.0001,53.2359,269.9218,90.16,9.2847e-05,1.015e-05,0.0,0 STARLINK-5064,1 55428U 23014AP  23177.68415757  .00001015  00000-0  92847-4 0  9998,2 55428  70.0001  53.2359 0002974 269.9218  90.1600 14.98317442 22777,6950.232,96.108,574.164,570.03,0.0
55428.0,STARLINK-5064,PAYLOAD,2023-06-27 19:39:28,14.98331956,0.0002971,70.0001,50.3744,269.3439,90.738,-6.6244e-06,-1.72e-06,0.0,0 STARLINK-5064,1 55428U 23014AP  23178.81907497 -.00000172  00000-0 -66244-5 0  9999,2 55428  70.0001  50.3744 0002971 269.3439  90.7380 14.98331956 22945,6950.187,96.107,574.117,569.987,0.0
55428.0,STARLINK-5064,PAYLOAD,2023-06-29 02:06:01,14.98331188,0.0002964,70.0,47.1762,267.9414,92.1405,4.0203e-05,3.87e-06,0.0,0 STARLINK-5064,1 55428U 23014AP  23180.08751325  .00000387  00000-0  40203-4 0  9990,2 55428  70.0000  47.1762 0002964 267.9414  92.1405 14.98331188 23130,6950.189,96.107,574.114,569.994,0.0
55428.0,STARLINK-5064,PAYLOAD,2023-06-30 08:32:34,14.98329201,0.0003009,70.0,43.9771,260.2871,99.7948,-3.0803e-05,-4.61e-06,0.0,0 STARLINK-5064,1 55428U 23014AP  23181.35595535 -.00000461  00000-0 -30803-4 0  9990,2 55428  70.0000  43.9771 0003009 260.2871  99.7948 14.98329201 23327,6950.195,96.107,574.152,569.969,0.0
55428.0,STARLINK-5064,PAYLOAD,2023-07-01 08:34:35,14.98308055,0.0003192,70.0,41.4521,259.3003,100.7797,0.00037238,4.35e-05,0.0,0 STARLINK-5064,1 55428U 23014AP  23182.35735873  .00004350  00000-0  37238-3 0  9999,2 55428  70.0000  41.4521 0003192 259.3003 100.7797 14.98308055 23477,6950.261,96.108,574.344,569.907,0.0
55428.0,STARLINK-5064,PAYLOAD,2023-07-01 18:11:23,14.98329487,0.0003087,69.9998,40.4421,267.757,92.3235,2.6136e-05,2.19e-06,0.0,0 STARLINK-5064,1 55428U 23014AP  23182.75791375  .00000219  00000-0  26136-4 0  9998,2 55428  69.9998  40.4421 0003087 267.7570  92.3235 14.98329487 23535,6950.194,96.107,574.205,569.914,0.0
55428.0,STARLINK-5064,PAYLOAD,2023-07-03 00:37:56,14.983322,0.0003135,69.9998,37.2441,267.8076,92.2724,1.928e-05,1.37e-06,0.0,0 STARLINK-5064,1 55428U 23014AP  23184.02635161  .00000137  00000-0  19280-4 0  9991,2 55428  69.9998  37.2441 0003135 267.8076  92.2724 14.98332200 23727,6950.186,96.107,574.23,569.872,0.0
55428.0,STARLINK-5064,PAYLOAD,2023-07-04 00:39:57,14.98332586,0.0003051,70.0001,34.7192,268.5461,91.5349,2.4291e-05,1.97e-06,0.0,0 STARLINK-5064,1 55428U 23014AP  23185.02775006  .00000197  00000-0  24291-4 0  9999,2 55428  70.0001  34.7192 0003051 268.5461  91.5349 14.98332586 23871,6950.185,96.107,574.17,569.929,0.0
55428.0,STARLINK-5064,PAYLOAD,2023-07-05 07:06:31,14.98328291,0.0003038,70.0001,31.5209,269.3164,90.7647,-3.4153e-05,-5e-06,0.0,0 STARLINK-5064,1 55428U 23014AP  23186.29619332 -.00000500  00000-0 -34153-4 0  9996,2 55428  70.0001  31.5209 0003038 269.3164  90.7647 14.98328291 24061,6950.198,96.107,574.175,569.952,0.0
55428.0,STARLINK-5064,PAYLOAD,2023-07-06 07:08:32,14.98324463,0.0003052,70.0001,28.9956,270.2759,89.805,9.7468e-05,1.07e-05,0.0,0 STARLINK-5064,1 55428U 23014AP  23187.29759303  .00001070  00000-0  97468-4 0  9999,2 55428  70.0001  28.9956 0003052 270.2759  89.8050 14.98324463 24218,6950.21,96.107,574.196,569.954,0.0
55428.0,STARLINK-5064,PAYLOAD,2023-07-06 19:57:36,14.98333174,0.0003177,69.9999,27.649,268.8976,91.1819,3.9395e-05,3.77e-06,0.0,0 STARLINK-5064,1 55428U 23014AP  23187.83166771  .00000377  00000-0  39395-4 0  9994,2 55428  69.9999  27.6490 0003177 268.8976  91.1819 14.98333174 24298,6950.183,96.107,574.256,569.84,0.0
55428.0,STARLINK-5064,PAYLOAD,2023-07-07 19:59:37,14.9833006,0.000324,69.9998,25.124,268.6654,91.4134,3.8877e-05,3.71e-06,0.0,0 STARLINK-5064,1 55428U 23014AP  23188.83306874  .00000371  00000-0  38877-4 0  9993,2 55428  69.9998  25.1240 0003240 268.6654  91.4134 14.98330060 24446,6950.193,96.107,574.31,569.806,0.0
55428.0,STARLINK-5064,PAYLOAD,2023-07-08 20:01:38,14.98331509,0.0003059,70.0002,22.5994,267.9008,92.1801,-2.8796e-05,-4.37e-06,0.0,0 STARLINK-5064,1 55428U 23014AP  23189.83446898 -.00000437  00000-0 -28796-4 0  9999,2 55428  70.0002  22.5994 0003059 267.9008  92.1801 14.98331509 24599,6950.188,96.107,574.179,569.927,0.0
55428.0,STARLINK-5064,PAYLOAD,2023-07-09 21:39:47,14.98329511,0.0003126,70.0002,19.9063,266.1313,93.9488,-1.6683e-05,-2.92e-06,0.0,0 STARLINK-5064,1 55428U 23014AP  23190.90262947 -.00000292  00000-0 -16683-4 0  9991,2 55428  70.0002  19.9063 0003126 266.1313  93.9488 14.98329511 24759,6950.194,96.107,574.232,569.887,0.0
55428.0,STARLINK-5064,PAYLOAD,2023-07-10 23:17:55,14.98332772,0.0003285,69.9999,17.2124,269.2026,90.8757,4.0862e-05,3.95e-06,0.0,0 STARLINK-5064,1 55428U 23014AP  23191.97078541  .00000395  00000-0  40862-4 0  9992,2 55428  69.9999  17.2124 0003285 269.2026  90.8757 14.98332772 24917,6950.184,96.107,574.332,569.766,0.0
55428.0,STARLINK-5064,PAYLOAD,2023-07-11 18:31:33,14.98326909,0.0003314,69.9999,15.1921,269.045,91.033,-3.3908e-05,-4.98e-06,0.0,0 STARLINK-5064,1 55428U 23014AP  23192.77191118 -.00000498  00000-0 -33908-4 0  9996,2 55428  69.9999  15.1921 0003314 269.0450  91.0330 14.98326909 25030,6950.202,96.107,574.371,569.764,0.0
55428.0,STARLINK-5064,PAYLOAD,2023-07-12 18:33:33,14.9833201,0.0003288,70.0,12.6671,268.9059,91.1723,2.216e-06,-6.7e-07,0.0,0 STARLINK-5064,1 55428U 23014AP  23193.77330662 -.00000067  00000-0  22160-5 0  9996,2 55428  70.0000  12.6671 0003288 268.9059  91.1723 14.98332010 25186,6950.187,96.107,574.337,569.766,0.0
55428.0,STARLINK-5064,PAYLOAD,2023-07-13 21:47:50,14.98329754,0.000317,70.0004,9.8052,268.1447,91.9349,6.8546e-06,-1.1e-07,0.0,0 STARLINK-5064,1 55428U 23014AP  23194.90822743 -.00000011  00000-0  68546-5 0  9995,2 55428  70.0004   9.8052 0003170 268.1447  91.9349 14.98329754 25356,6950.194,96.107,574.262,569.855,0.0
55428.0,STARLINK-5064,PAYLOAD,2023-07-14 21:49:51,14.98331978,0.0003008,70.001,7.2818,267.2283,92.8532,-6.9357e-06,-1.76e-06,0.0,0 STARLINK-5064,1 55428U 23014AP  23195.90962648 -.00000176  00000-0 -69357-5 0  9999,2 55428  70.0010   7.2818 0003008 267.2283  92.8532 14.98331978 25505,6950.187,96.107,574.142,569.961,0.0
55428.0,STARLINK-5064,PAYLOAD,2023-07-16 04:16:25,14.9832949,0.0003052,70.0009,4.0831,269.908,90.173,-3.1907e-06,-1.31e-06,0.0,0 STARLINK-5064,1 55428U 23014AP  23197.17806714 -.00000131  00000-0 -31907-5 0  9992,2 55428  70.0009   4.0831 0003052 269.9080  90.1730 14.98329490 25693,6950.194,96.107,574.181,569.938,0.0
55428.0,STARLINK-5064,PAYLOAD,2023-07-17 10:42:58,14.98332591,0.0003128,70.0009,0.8851,270.9935,89.0865,1.3909e-05,7.3e-07,0.0,0 STARLINK-5064,1 55428U 23014AP  23198.44650479  .00000073  00000-0  13909-4 0  9992,2 55428  70.0009   0.8851 0003128 270.9935  89.0865 14.98332591 25887,6950.185,96.107,574.224,569.876,0.0
55428.0,STARLINK-5064,PAYLOAD,2023-07-18 15:33:23,14.98326919,0.0003167,70.001,357.855,270.7364,89.3432,4.2517e-06,-4.2e-07,0.0,0 STARLINK-5064,1 55428U 23014AP  23199.64818695 -.00000042  00000-0  42517-5 0  9996,2 55428  70.0010 357.8550 0003167 270.7364  89.3432 14.98326919 26068,6950.202,96.107,574.269,569.866,0.0
55428.0,STARLINK-5064,PAYLOAD,2023-07-19 17:11:32,14.98325866,0.0003145,70.0012,355.1615,269.4539,90.626,-9.3458e-05,-1.208e-05,0.0,0 STARLINK-5064,1 55428U 23014AP  23200.71635143 -.00001208  00000-0 -93458-4 0  9997,2 55428  70.0012 355.1615 0003145 269.4539  90.6260 14.98325866 26220,6950.206,96.107,574.257,569.885,0.0
55428.0,STARLINK-5064,PAYLOAD,2023-07-20 14:01:16,14.98382833,0.0003415,70.001,352.9736,271.4139,88.6628,-0.00080467,-9.694e-05,0.0,0 STARLINK-5064,1 55428U 23014AP  23201.58421771 -.00009694  00000-0 -80467-3 0  9995,2 55428  70.0010 352.9736 0003415 271.4139  88.6628 14.98382833 26352,6950.03,96.104,574.268,569.521,0.0
55428.0,STARLINK-5064,PAYLOAD,2023-07-21 09:14:53,14.98334669,0.0003399,70.0009,350.9534,267.3935,92.6835,0.00012081,1.349e-05,0.0,0 STARLINK-5064,1 55428U 23014AP  23202.38533725  .00001349  00000-0  12081-3 0  9991,2 55428  70.0009 350.9534 0003399 267.3935  92.6835 14.98334669 26475,6950.178,96.107,574.406,569.681,0.0
